ROCK                    
1 60474U 24149G   26156.48234447  .00015264  00000+0  39281-3 0  9990
2 60474  97.3770 239.7785 0000216 315.8108  44.3120 15.39336501100463
CONNECTA IOT-3          
1 60475U 24149H   26157.93683976  .00004723  00000+0  20102-3 0  9997
2 60475  97.3730 234.1581 0001639 328.1821  31.9317 15.23473827100244
QUBE                    
1 60476U 24149J   26157.50038486  .00029739  00000+0  59517-3 0  9997
2 60476  97.3772 243.7319 0001074 233.8436 126.2715 15.46720625100812
WREN-1                  
1 60478U 24149L   26157.48737760  .00025829  00000+0  62420-3 0  9990
2 60478  97.3761 241.4911 0002909 303.6378  56.4591 15.41140542100673
TOMORROW-S1             
1 60479U 24149M   26157.49429206  .00009671  00000+0  30992-3 0  9991
2 60479  97.3744 238.0017 0001020 295.9081  64.2055 15.32567882100459
FLOCK 4BE-18            
1 60480U 24149N   26157.50114512  .00023142  00000+0  55285-3 0  9997
2 60480  97.3723 241.1227 0002398 297.8764  62.2240 15.41512275100667
FLOCK 4BE-7             
1 60481U 24149P   26157.95252672  .00024986  00000+0  62900-3 0  9996
2 60481  97.3753 240.9378 0001492 296.6857  63.4236 15.39906732100670
TOMORROW-S2             
1 60485U 24149T   26157.52500609  .00009609  00000+0  30772-3 0  9996
2 60485  97.3814 238.5107 0001648 341.2324  18.8857 15.32593774100454
FLOCK 4BE-36            
1 60486U 24149U   26157.93279952  .00019195  00000+0  44568-3 0  9995
2 60486  97.3739 242.2409 0002209 314.0252  46.0813 15.42409136100779
FLOCK 4BE-25            
1 60487U 24149V   26157.48756992  .00018684  00000+0  49241-3 0  9995
2 60487  97.3792 240.5681 0000725 312.1238  47.9946 15.38560856100595
FLOCK 4BE-31            
1 60488U 24149W   26157.19470790  .00029671  00000+0  65874-3 0  9991
2 60488  97.3796 242.3217 0001246 332.0989  28.0192 15.43663670100685
FLOCK 4BE-20            
1 60489U 24149X   26157.18531386  .00019791  00000+0  53480-3 0  9992
2 60489  97.3691 239.1712 0002301 316.8300  43.2764 15.37772193100525
FLOCK 4BE-23            
1 60490U 24149Y   26157.95387899  .00015130  00000+0  41427-3 0  9998
2 60490  97.3775 240.3130 0001963 324.6157  35.4957 15.37422655100621
FLOCK 4BE-15            
1 60491U 24149Z   26157.49497701  .00104601  00000+0  13863-2 0  9996
2 60491  97.3681 242.4908 0001502 260.2707  99.8379 15.57919493100769
FLOCK 4BE-17            
1 60492U 24149AA  26157.49695967  .00019682  00000+0  50327-3 0  9992
2 60492  97.3770 240.7850 0001553 303.2382  56.8715 15.39478170100612
NUSAT-50 (NANCY ROMAN)  
1 60493U 24149AB  26157.96422388  .00010955  00000+0  38341-3 0  9996
2 60493  97.3782 239.2930 0002496 209.5077 150.6023 15.29678565100562
FLOCK 4BE-22            
1 60494U 24149AC  26157.81272424  .00017681  00000+0  43248-3 0  9990
2 60494  97.3731 241.2785 0002206 315.8097  44.2973 15.40852276100704
FLOCK 4BE-34            
1 60495U 24149AD  26157.18045910  .00021515  00000+0  52573-3 0  9991
2 60495  97.3782 241.4572 0002260 339.9542  20.1615 15.40843621100631
TYCHE                   
1 60496U 24149AE  26157.90586740  .00005188  00000+0  20517-3 0  9994
2 60496  97.3749 235.8594 0001064 351.4477   8.6743 15.25903307100334
FLOCK 4BE-32            
1 60497U 24149AF  26157.48051624  .00023176  00000+0  54847-3 0  9996
2 60497  97.3715 241.2951 0002252 321.7900  38.3187 15.41797281100687
NUSAT-48 (HENRIETTA LE*)
1 60498U 24149AG  26157.03798339  .00013471  00000+0  46719-3 0  9995
2 60498  97.3909 238.5951 0002883 333.9515  26.1580 15.29924928100430
FLOCK 4BE-30            
1 60499U 24149AH  26157.18995269  .00157038  00000+0  24033-2 0  9995
2 60499  97.3790 242.3634 0002632 247.7055 112.3920 15.53809278100065
NUSAT-49 (KLARA DAN VO*)
1 60500U 24149AJ  26157.14673221  .00012353  00000+0  42352-3 0  9990
2 60500  97.3774 238.5123 0002011  27.7139 332.4208 15.30320220100446
FLOCK 4BE-11            
1 60501U 24149AK  26157.48084685  .00022838  00000+0  52581-3 0  9992
2 60501  97.3705 241.5169 0002153 322.0973  38.0123 15.42627988100707
YAM-7                   
1 60504U 24149AN  26157.67029333  .00008424  00000+0  27790-3 0  9994
2 60504  97.3780 237.9639 0002779 359.9960   0.1281 15.31674058100447
FLOCK 4BE-24            
1 60505U 24149AP  26157.53276401  .00027007  00000+0  62001-3 0  9992
2 60505  97.3712 241.8203 0002663 332.5533  27.5573 15.42679129100723
LUR-1                   
1 60506U 24149AQ  26157.19105835  .00009089  00000+0  31584-3 0  9999
2 60506  97.3734 236.1001 0003782   7.3981 352.7315 15.29962469100294
TANAGER-1               
1 60507U 24149AR  26157.53710486  .00003144  00000+0  68804-4 0  9994
2 60507  97.2805 251.7841 0004015 339.7358  20.3731 15.44899039101399
EAGLEEYE                
1 60508U 24149AS  26157.52589182  .00111830  00000+0  96042-3 0  9997
2 60508  97.3717 250.2911 0002889 268.5575  91.5356 15.69009249101264
FLOCK 4BE-29            
1 60509U 24149AT  26157.16221831  .00025390  00000+0  56201-3 0  9990
2 60509  97.3804 242.8720 0001993   6.0175 354.1097 15.43782952100713
