OBJECT_NAME,OBJECT_ID,EPOCH,MEAN_MOTION,ECCENTRICITY,INCLINATION,RA_OF_ASC_NODE,ARG_OF_PERICENTER,MEAN_ANOMALY,EPHEMERIS_TYPE,CLASSIFICATION_TYPE,NORAD_CAT_ID,ELEMENT_SET_NO,REV_AT_EPOCH,BSTAR,MEAN_MOTION_DOT,MEAN_MOTION_DDOT
ROCK,2024-149G,2026-06-05T11:34:34.562208,15.39336501,.00002163,97.3770,239.7785,315.8108,44.3120,0,U,60474,999,10046,.39281232E-3,.15264E-3,0
CONNECTA IOT-3,2024-149H,2026-06-06T22:29:02.955264,15.23473827,.00016393,97.3730,234.1581,328.1821,31.9317,0,U,60475,999,10024,.20101697E-3,.4723E-4,0
QUBE,2024-149J,2026-06-06T12:00:33.251904,15.46720625,.00010741,97.3772,243.7319,233.8436,126.2715,0,U,60476,999,10081,.59516958E-3,.29739E-3,0
WREN-1,2024-149L,2026-06-06T11:41:49.424640,15.41140542,.00029091,97.3761,241.4911,303.6378,56.4591,0,U,60478,999,10067,.62419608E-3,.25829E-3,0
TOMORROW-S1,2024-149M,2026-06-06T11:51:46.833984,15.32567882,.00010202,97.3744,238.0017,295.9081,64.2055,0,U,60479,999,10045,.30992365E-3,.9671E-4,0
FLOCK 4BE-18,2024-149N,2026-06-06T12:01:38.938368,15.41512275,.00023987,97.3723,241.1227,297.8764,62.2240,0,U,60480,999,10066,.55285289E-3,.23142E-3,0
FLOCK 4BE-7,2024-149P,2026-06-06T22:51:38.308608,15.39906732,.00014927,97.3753,240.9378,296.6857,63.4236,0,U,60481,999,10067,.62900211E-3,.24986E-3,0
TOMORROW-S2,2024-149T,2026-06-06T12:36:00.526176,15.32593774,.00016481,97.3814,238.5107,341.2324,18.8857,0,U,60485,999,10045,.3077232E-3,.9609E-4,0
FLOCK 4BE-36,2024-149U,2026-06-06T22:23:13.878528,15.42409136,.00022094,97.3739,242.2409,314.0252,46.0813,0,U,60486,999,10077,.4456848E-3,.19195E-3,0
FLOCK 4BE-25,2024-149V,2026-06-06T11:42:06.041088,15.38560856,.00007255,97.3792,240.5681,312.1238,47.9946,0,U,60487,999,10059,.49241196E-3,.18684E-3,0
FLOCK 4BE-31,2024-149W,2026-06-06T04:40:22.762560,15.43663670,.0001246,97.3796,242.3217,332.0989,28.0192,0,U,60488,999,10068,.6587388E-3,.29671E-3,0
FLOCK 4BE-20,2024-149X,2026-06-06T04:26:51.117504,15.37772193,.00023019,97.3691,239.1712,316.8300,43.2764,0,U,60489,999,10052,.5348025E-3,.19791E-3,0
FLOCK 4BE-23,2024-149Y,2026-06-06T22:53:35.144736,15.37422655,.00019637,97.3775,240.3130,324.6157,35.4957,0,U,60490,999,10062,.41427044E-3,.1513E-3,0
FLOCK 4BE-15,2024-149Z,2026-06-06T11:52:46.013664,15.57919493,.0001502,97.3681,242.4908,260.2707,99.8379,0,U,60491,999,10076,.13862529E-2,.104601E-2,0
FLOCK 4BE-17,2024-149AA,2026-06-06T11:55:37.315488,15.39478170,.00015539,97.3770,240.7850,303.2382,56.8715,0,U,60492,999,10061,.5032655E-3,.19682E-3,0
NUSAT-50 (NANCY ROMAN),2024-149AB,2026-06-06T23:08:28.943232,15.29678565,.00024969,97.3782,239.2930,209.5077,150.6023,0,U,60493,999,10056,.38340848E-3,.10955E-3,0
FLOCK 4BE-22,2024-149AC,2026-06-06T19:30:19.374336,15.40852276,.00022067,97.3731,241.2785,315.8097,44.2973,0,U,60494,999,10070,.43248468E-3,.17681E-3,0
FLOCK 4BE-34,2024-149AD,2026-06-06T04:19:51.666240,15.40843621,.00022603,97.3782,241.4572,339.9542,20.1615,0,U,60495,999,10063,.52572625E-3,.21515E-3,0
TYCHE,2024-149AE,2026-06-06T21:44:26.943360,15.25903307,.00010641,97.3749,235.8594,351.4477,8.6743,0,U,60496,999,10033,.20517153E-3,.5188E-4,0
FLOCK 4BE-32,2024-149AF,2026-06-06T11:31:56.603136,15.41797281,.00022521,97.3715,241.2951,321.7900,38.3187,0,U,60497,999,10068,.54846909E-3,.23176E-3,0
NUSAT-48 (HENRIETTA LEAVITT),2024-149AG,2026-06-06T00:54:41.764896,15.29924928,.00028832,97.3909,238.5951,333.9515,26.1580,0,U,60498,999,10043,.46719318E-3,.13471E-3,0
FLOCK 4BE-30,2024-149AH,2026-06-06T04:33:31.912416,15.53809278,.0002632,97.3790,242.3634,247.7055,112.3920,0,U,60499,999,10006,.24033E-2,.157038E-2,0
NUSAT-49 (KLARA DAN VON NEUMANN),2024-149AJ,2026-06-06T03:31:17.662944,15.30320220,.00020112,97.3774,238.5123,27.7139,332.4208,0,U,60500,999,10044,.42351562E-3,.12353E-3,0
FLOCK 4BE-11,2024-149AK,2026-06-06T11:32:25.167840,15.42627988,.00021536,97.3705,241.5169,322.0973,38.0123,0,U,60501,999,10070,.52580726E-3,.22838E-3,0
YAM-7,2024-149AN,2026-06-06T16:05:13.343712,15.31674058,.00027796,97.3780,237.9639,359.9960,0.1281,0,U,60504,999,10044,.27790349E-3,.8424E-4,0
FLOCK 4BE-24,2024-149AP,2026-06-06T12:47:10.810464,15.42679129,.00026631,97.3712,241.8203,332.5533,27.5573,0,U,60505,999,10072,.62000569E-3,.27007E-3,0
LUR-1,2024-149AQ,2026-06-06T04:35:07.441440,15.29962469,.00037823,97.3734,236.1001,7.3981,352.7315,0,U,60506,999,10029,.31584196E-3,.9089E-4,0
TANAGER-1,2024-149AR,2026-06-06T12:53:25.859904,15.44899039,.00040156,97.2805,251.7841,339.7358,20.3731,0,U,60507,999,10139,.68804079E-4,.3144E-4,0
EAGLEEYE,2024-149AS,2026-06-06T12:37:17.053248,15.69009249,.0002889,97.3717,250.2911,268.5575,91.5356,0,U,60508,999,10126,.96042284E-3,.11183E-2,0
FLOCK 4BE-29,2024-149AT,2026-06-06T03:53:35.661984,15.43782952,.00019934,97.3804,242.8720,6.0175,354.1097,0,U,60509,999,10071,.56200617E-3,.2539E-3,0
